{
  "type": "FeatureCollection",
  "features": [
    {
      "type": "Feature",
      "properties": {
        "norad_id": 29954,
        "name": "FENGYUN 1C DEB",
        "group": "fengyun-1c-debris",
        "lat": 54.48648766686748,
        "lon": -147.82207838968787,
        "alt_km": 823.1011066765277,
        "timestamp": "2025-12-06T14:35:37.398743+00:00",
        "meta_object_name": "FENGYUN 1C DEB",
        "meta_object_id": "1999-025KC",
        "meta_epoch": "2025-12-06T02:17:29.548032",
        "meta_mean_motion": 14.34183512,
        "meta_eccentricity": 0.00741498,
        "meta_inclination": 100.1506,
        "meta_ra_of_asc_node": 17.038,
        "meta_arg_of_pericenter": 288.0929,
        "meta_mean_anomaly": 71.2184,
        "meta_ephemeris_type": 0,
        "meta_classification_type": "U",
        "meta_norad_cat_id": 29954,
        "meta_element_set_no": 999,
        "meta_rev_at_epoch": 98092,
        "meta_bstar": 0.0014831713,
        "meta_mean_motion_dot": 4.231e-05,
        "meta_mean_motion_ddot": 0,
        "tle_line1": "1 29954U 99025KC  25340.09548088  .00004231  00000+0  14832-2 0  9999",
        "tle_line2": "2 29954 100.1506  17.0380 0074149 288.0929  71.2184 14.34183512980929"
      },
      "geometry": {
        "type": "Point",
        "coordinates": [
          -147.82207838968787,
          54.48648766686748
        ]
      }
    },
    {
      "type": "Feature",
      "properties": {
        "norad_id": 29955,
        "name": "FENGYUN 1C DEB",
        "group": "fengyun-1c-debris",
        "lat": 49.58894667357011,
        "lon": -108.1431331289558,
        "alt_km": 763.7523740425222,
        "timestamp": "2025-12-06T14:35:37.398754+00:00",
        "meta_object_name": "FENGYUN 1C DEB",
        "meta_object_id": "1999-025KD",
        "meta_epoch": "2025-12-05T23:48:02.831616",
        "meta_mean_motion": 14.38147282,
        "meta_eccentricity": 0.0007187,
        "meta_inclination": 99.2747,
        "meta_ra_of_asc_node": 60.1265,
        "meta_arg_of_pericenter": 267.6567,
        "meta_mean_anomaly": 272.4648,
        "meta_ephemeris_type": 0,
        "meta_classification_type": "U",
        "meta_norad_cat_id": 29955,
        "meta_element_set_no": 999,
        "meta_rev_at_epoch": 97964,
        "meta_bstar": 0.0025439384,
        "meta_mean_motion_dot": 7.677e-05,
        "meta_mean_motion_ddot": 0,
        "tle_line1": "1 29955U 99025KD  25339.99169944  .00007677  00000+0  25439-2 0  9999",
        "tle_line2": "2 29955  99.2747  60.1265 0007187 267.6567 272.4648 14.38147282979640"
      },
      "geometry": {
        "type": "Point",
        "coordinates": [
          -108.1431331289558,
          49.58894667357011
        ]
      }
    },
    {
      "type": "Feature",
      "properties": {
        "norad_id": 29956,
        "name": "FENGYUN 1C DEB",
        "group": "fengyun-1c-debris",
        "lat": 0.07052680926396215,
        "lon": -170.34825719480932,
        "alt_km": 907.476739164259,
        "timestamp": "2025-12-06T14:35:37.398765+00:00",
        "meta_object_name": "FENGYUN 1C DEB",
        "meta_object_id": "1999-025KE",
        "meta_epoch": "2025-12-06T00:12:08.659584",
        "meta_mean_motion": 14.06169307,
        "meta_eccentricity": 0.00540092,
        "meta_inclination": 98.7925,
        "meta_ra_of_asc_node": 9.0586,
        "meta_arg_of_pericenter": 36.3188,
        "meta_mean_anomaly": 349.3284,
        "meta_ephemeris_type": 0,
        "meta_classification_type": "U",
        "meta_norad_cat_id": 29956,
        "meta_element_set_no": 999,
        "meta_rev_at_epoch": 96955,
        "meta_bstar": 0.00017536499,
        "meta_mean_motion_dot": 2.5e-06,
        "meta_mean_motion_ddot": 0,
        "tle_line1": "1 29956U 99025KE  25340.00843356  .00000250  00000+0  17536-3 0  9990",
        "tle_line2": "2 29956  98.7925   9.0586 0054009  36.3188 349.3284 14.06169307969552"
      },
      "geometry": {
        "type": "Point",
        "coordinates": [
          -170.34825719480932,
          0.07052680926396215
        ]
      }
    },
    {
      "type": "Feature",
      "properties": {
        "norad_id": 29957,
        "name": "FENGYUN 1C DEB",
        "group": "fengyun-1c-debris",
        "lat": -33.69638604770535,
        "lon": 113.22511234954005,
        "alt_km": 746.8214579738024,
        "timestamp": "2025-12-06T14:35:37.398775+00:00",
        "meta_object_name": "FENGYUN 1C DEB",
        "meta_object_id": "1999-025KF",
        "meta_epoch": "2025-12-05T22:46:49.619424",
        "meta_mean_motion": 14.50716218,
        "meta_eccentricity": 0.00383305,
        "meta_inclination": 98.9228,
        "meta_ra_of_asc_node": 106.5135,
        "meta_arg_of_pericenter": 197.7819,
        "meta_mean_anomaly": 288.6736,
        "meta_ephemeris_type": 0,
        "meta_classification_type": "U",
        "meta_norad_cat_id": 29957,
        "meta_element_set_no": 999,
        "meta_rev_at_epoch": 97393,
        "meta_bstar": 0.0069459179,
        "meta_mean_motion_dot": 0.00027627,
        "meta_mean_motion_ddot": 0,
        "tle_line1": "1 29957U 99025KF  25339.94918541  .00027627  00000+0  69459-2 0  9998",
        "tle_line2": "2 29957  98.9228 106.5135 0038330 197.7819 288.6736 14.50716218973938"
      },
      "geometry": {
        "type": "Point",
        "coordinates": [
          113.22511234954005,
          -33.69638604770535
        ]
      }
    },
    {
      "type": "Feature",
      "properties": {
        "norad_id": 29958,
        "name": "FENGYUN 1C DEB",
        "group": "fengyun-1c-debris",
        "lat": -36.36577829232682,
        "lon": 1.604766911539226,
        "alt_km": 815.4414888993251,
        "timestamp": "2025-12-06T14:35:37.398786+00:00",
        "meta_object_name": "FENGYUN 1C DEB",
        "meta_object_id": "1999-025KG",
        "meta_epoch": "2025-12-06T07:58:29.596800",
        "meta_mean_motion": 14.1444433,
        "meta_eccentricity": 0.0054676,
        "meta_inclination": 98.6686,
        "meta_ra_of_asc_node": 354.8872,
        "meta_arg_of_pericenter": 351.6747,
        "meta_mean_anomaly": 8.3514,
        "meta_ephemeris_type": 0,
        "meta_classification_type": "U",
        "meta_norad_cat_id": 29958,
        "meta_element_set_no": 999,
        "meta_rev_at_epoch": 97360,
        "meta_bstar": 0.00061629348,
        "meta_mean_motion_dot": 1.155e-05,
        "meta_mean_motion_ddot": 0,
        "tle_line1": "1 29958U 99025KG  25340.33228700  .00001155  00000+0  61629-3 0  9995",
        "tle_line2": "2 29958  98.6686 354.8872 0054676 351.6747   8.3514 14.14444330973600"
      },
      "geometry": {
        "type": "Point",
        "coordinates": [
          1.604766911539226,
          -36.36577829232682
        ]
      }
    },
    {
      "type": "Feature",
      "properties": {
        "norad_id": 29959,
        "name": "FENGYUN 1C DEB",
        "group": "fengyun-1c-debris",
        "lat": 52.42399992647086,
        "lon": -156.93327004355336,
        "alt_km": 891.7813020096319,
        "timestamp": "2025-12-06T14:35:37.398797+00:00",
        "meta_object_name": "FENGYUN 1C DEB",
        "meta_object_id": "1999-025KH",
        "meta_epoch": "2025-12-06T00:38:30.242688",
        "meta_mean_motion": 14.06010429,
        "meta_eccentricity": 0.00419291,
        "meta_inclination": 98.809,
        "meta_ra_of_asc_node": 10.8748,
        "meta_arg_of_pericenter": 346.9845,
        "meta_mean_anomaly": 78.4617,
        "meta_ephemeris_type": 0,
        "meta_classification_type": "U",
        "meta_norad_cat_id": 29959,
        "meta_element_set_no": 999,
        "meta_rev_at_epoch": 96846,
        "meta_bstar": 0.00034878949,
        "meta_mean_motion_dot": 5.33e-06,
        "meta_mean_motion_ddot": 0,
        "tle_line1": "1 29959U 99025KH  25340.02673892  .00000533  00000+0  34879-3 0  9994",
        "tle_line2": "2 29959  98.8090  10.8748 0041929 346.9845  78.4617 14.06010429968465"
      },
      "geometry": {
        "type": "Point",
        "coordinates": [
          -156.93327004355336,
          52.42399992647086
        ]
      }
    },
    {
      "type": "Feature",
      "properties": {
        "norad_id": 29960,
        "name": "FENGYUN 1C DEB",
        "group": "fengyun-1c-debris",
        "lat": -26.500135712720457,
        "lon": -29.289952205255204,
        "alt_km": 785.6473140775106,
        "timestamp": "2025-12-06T14:35:37.398807+00:00",
        "meta_object_name": "FENGYUN 1C DEB",
        "meta_object_id": "1999-025KJ",
        "meta_epoch": "2025-12-05T21:54:10.202976",
        "meta_mean_motion": 14.16381235,
        "meta_eccentricity": 0.00912114,
        "meta_inclination": 98.6137,
        "meta_ra_of_asc_node": 325.7029,
        "meta_arg_of_pericenter": 306.0853,
        "meta_mean_anomaly": 82.5864,
        "meta_ephemeris_type": 0,
        "meta_classification_type": "U",
        "meta_norad_cat_id": 29960,
        "meta_element_set_no": 999,
        "meta_rev_at_epoch": 97358,
        "meta_bstar": 0.0008248844,
        "meta_mean_motion_dot": 1.663e-05,
        "meta_mean_motion_ddot": 0,
        "tle_line1": "1 29960U 99025KJ  25339.91261809  .00001663  00000+0  82488-3 0  9997",
        "tle_line2": "2 29960  98.6137 325.7029 0091211 306.0853  82.5864 14.16381235973588"
      },
      "geometry": {
        "type": "Point",
        "coordinates": [
          -29.289952205255204,
          -26.500135712720457
        ]
      }
    }
  ]
}